[Satellite]
VERSION=1.1
NAME=GSAT-30
NICKNAME=GSAT-30
TLE1=1 45026U 20005A   20045.95035292 -.00000179  00000-0  00000-0 0  9998
TLE2=2 45026   0.1158 270.5517 0003859   6.4238 292.5477  1.00271709   316
STATUS=0
